{"type": "FeatureCollection", "features": [ {"type": "Feature", "properties": {"norad_id": 36437, "name": "COSMOS 2251 DEB", "group": "cosmos-2251-debris", "lat": 63.1339173862603, "lon": 67.6802888523909, "alt_km": 668.161815325835, "timestamp": "2025-12-13T05:42:57.969527+00:00", "meta": {"OBJECT_NAME": "COSMOS 2251 DEB", "OBJECT_ID": "1993-036BAL", "EPOCH": "2025-12-08T11:07:20.888544", "MEAN_MOTION": 14.70572706, "ECCENTRICITY": 0.00232731, "INCLINATION": 73.9426, "RA_OF_ASC_NODE": 42.346, "ARG_OF_PERICENTER": 273.808, "MEAN_ANOMALY": 86.043, "EPHEMERIS_TYPE": 0, "CLASSIFICATION_TYPE": "U", "NORAD_CAT_ID": 36437, "ELEMENT_SET_NO": 999, "REV_AT_EPOCH": 65988, "BSTAR": 0.0019430699, "MEAN_MOTION_DOT": 0.00011844, "MEAN_MOTION_DDOT": 0}, "tle": {"line1": "1 36437U 93036BAL 25342.46343621  .00011844  00000+0  19431-2 0  9996", "line2": "2 36437  73.9426  42.3460 0023273 273.8080  86.0430 14.70572706659886"}}, "geometry": {"type": "Point", "coordinates": [67.6802888523909, 63.1339173862603]}}, {"type": "Feature", "properties": {"norad_id": 36439, "name": "COSMOS 2251 DEB", "group": "cosmos-2251-debris", "lat": 38.38372429870168, "lon": -157.24307677396388, "alt_km": 1282.7154065566247, "timestamp": "2025-12-13T05:42:57.969538+00:00", "meta": {"OBJECT_NAME": "COSMOS 2251 DEB", "OBJECT_ID": "1993-036BAN", "EPOCH": "2025-12-11T12:04:38.629632", "MEAN_MOTION": 13.47792153, "ECCENTRICITY": 0.04277143, "INCLINATION": 73.9683, "RA_OF_ASC_NODE": 38.6892, "ARG_OF_PERICENTER": 10.8049, "MEAN_ANOMALY": 350.189, "EPHEMERIS_TYPE": 0, "CLASSIFICATION_TYPE": "U", "NORAD_CAT_ID": 36439, "ELEMENT_SET_NO": 999, "REV_AT_EPOCH": 58596, "BSTAR": 0.0014143946, "MEAN_MOTION_DOT": 1.502e-05, "MEAN_MOTION_DDOT": 0}, "tle": {"line1": "1 36439U 93036BAN 25345.50322488  .00001502  00000+0  14144-2 0  9990", "line2": "2 36439  73.9683  38.6892 0427714  10.8049 350.1890 13.47792153585967"}}, "geometry": {"type": "Point", "coordinates": [-157.24307677396388, 38.38372429870168]}}, {"type": "Feature", "properties": {"norad_id": 36441, "name": "COSMOS 2251 DEB", "group": "cosmos-2251-debris", "lat": -52.023426011551834, "lon": -169.46198784481967, "alt_km": 615.0185063838271, "timestamp": "2025-12-13T05:42:57.969549+00:00", "meta": {"OBJECT_NAME": "COSMOS 2251 DEB", "OBJECT_ID": "1993-036BAQ", "EPOCH": "2025-12-04T18:18:25.005024", "MEAN_MOTION": 15.06603971, "ECCENTRICITY": 0.01084902, "INCLINATION": 73.8352, "RA_OF_ASC_NODE": 6.3404, "ARG_OF_PERICENTER": 107.4279, "MEAN_ANOMALY": 253.8807, "EPHEMERIS_TYPE": 0, "CLASSIFICATION_TYPE": "U", "NORAD_CAT_ID": 36441, "ELEMENT_SET_NO": 999, "REV_AT_EPOCH": 86845, "BSTAR": 0.00090032635, "MEAN_MOTION_DOT": 0.00015248, "MEAN_MOTION_DDOT": 0}, "tle": {"line1": "1 36441U 93036BAQ 25338.76278941  .00015248  00000+0  90033-3 0  9991", "line2": "2 36441  73.8352   6.3404 0108490 107.4279 253.8807 15.06603971868459"}}, "geometry": {"type": "Point", "coordinates": [-169.46198784481967, -52.023426011551834]}}, {"type": "Feature", "properties": {"norad_id": 36442, "name": "COSMOS 2251 DEB", "group": "cosmos-2251-debris", "lat": 51.073265417341474, "lon": 59.08475426879151, "alt_km": 474.20911488532147, "timestamp": "2025-12-13T05:42:57.969559+00:00", "meta": {"OBJECT_NAME": "COSMOS 2251 DEB", "OBJECT_ID": "1993-036BAR", "EPOCH": "2025-12-08T10:48:39.469248", "MEAN_MOTION": 15.27762018, "ECCENTRICITY": 0.00088131, "INCLINATION": 73.9528, "RA_OF_ASC_NODE": 48.4206, "ARG_OF_PERICENTER": 323.6974, "MEAN_ANOMALY": 36.3628, "EPHEMERIS_TYPE": 0, "CLASSIFICATION_TYPE": "U", "NORAD_CAT_ID": 36442, "ELEMENT_SET_NO": 999, "REV_AT_EPOCH": 85850, "BSTAR": 0.005804433, "MEAN_MOTION_DOT": 0.00161056, "MEAN_MOTION_DDOT": 0}, "tle": {"line1": "1 36442U 93036BAR 25342.45045682  .00161056  00000+0  58044-2 0  9991", "line2": "2 36442  73.9528  48.4206 0008813 323.6974  36.3628 15.27762018858506"}}, "geometry": {"type": "Point", "coordinates": [59.08475426879151, 51.073265417341474]}}, {"type": "Feature", "properties": {"norad_id": 36451, "name": "COSMOS 2251 DEB", "group": "cosmos-2251-debris", "lat": 71.7590024620839, "lon": 93.49467965391915, "alt_km": 754.0937092410359, "timestamp": "2025-12-13T05:42:57.969569+00:00", "meta": {"OBJECT_NAME": "COSMOS 2251 DEB", "OBJECT_ID": "1993-036BBA", "EPOCH": "2025-12-08T10:10:07.447584", "MEAN_MOTION": 14.18724413, "ECCENTRICITY": 0.01840749, "INCLINATION": 73.9539, "RA_OF_ASC_NODE": 342.9701, "ARG_OF_PERICENTER": 168.3937, "MEAN_ANOMALY": 192.1542, "EPHEMERIS_TYPE": 0, "CLASSIFICATION_TYPE": "U", "NORAD_CAT_ID": 36451, "ELEMENT_SET_NO": 999, "REV_AT_EPOCH": 84164, "BSTAR": 0.0010726423, "MEAN_MOTION_DOT": 2.61e-05, "MEAN_MOTION_DDOT": 0}, "tle": {"line1": "1 36451U 93036BBA 25342.42369731  .00002610  00000+0  10726-2 0  9997", "line2": "2 36451  73.9539 342.9701 0184074 168.3937 192.1542 14.18724413841646"}}, "geometry": {"type": "Point", "coordinates": [93.49467965391915, 71.7590024620839]}}, {"type": "Feature", "properties": {"norad_id": 36453, "name": "COSMOS 2251 DEB", "group": "cosmos-2251-debris", "lat": 52.136752388159465, "lon": 173.21616593114888, "alt_km": 662.0006963101287, "timestamp": "2025-12-13T05:42:57.969580+00:00", "meta": {"OBJECT_NAME": "COSMOS 2251 DEB", "OBJECT_ID": "1993-036BBC", "EPOCH": "2025-12-10T21:57:51.896736", "MEAN_MOTION": 14.52584412, "ECCENTRICITY": 0.0070369, "INCLINATION": 73.9233, "RA_OF_ASC_NODE": 155.8519, "ARG_OF_PERICENTER": 59.6886, "MEAN_ANOMALY": 92.8235, "EPHEMERIS_TYPE": 0, "CLASSIFICATION_TYPE": "U", "NORAD_CAT_ID": 36453, "ELEMENT_SET_NO": 999, "REV_AT_EPOCH": 84441, "BSTAR": 0.0012973, "MEAN_MOTION_DOT": 5.456e-05, "MEAN_MOTION_DDOT": 0}, "tle": {"line1": "1 36453U 93036BBC 25344.91518399  .00005456  00000+0  12973-2 0  9998", "line2": "2 36453  73.9233 155.8519 0070369  59.6886  92.8235 14.52584412844417"}}, "geometry": {"type": "Point", "coordinates": [173.21616593114888, 52.136752388159465]}}, {"type": "Feature", "properties": {"norad_id": 36459, "name": "COSMOS 2251 DEB", "group": "cosmos-2251-debris", "lat": -67.244544630225, "lon": -44.093087820309925, "alt_km": 890.4113128755671, "timestamp": "2025-12-13T05:42:57.969590+00:00", "meta": {"OBJECT_NAME": "COSMOS 2251 DEB", "OBJECT_ID": "1993-036BBJ", "EPOCH": "2025-12-08T08:14:17.711520", "MEAN_MOTION": 14.26367403, "ECCENTRICITY": 0.01135417, "INCLINATION": 74.048, "RA_OF_ASC_NODE": 7.7381, "ARG_OF_PERICENTER": 104.7075, "MEAN_ANOMALY": 256.669, "EPHEMERIS_TYPE": 0, "CLASSIFICATION_TYPE": "U", "NORAD_CAT_ID": 36459, "ELEMENT_SET_NO": 999, "REV_AT_EPOCH": 7819, "BSTAR": 0.0018203568, "MEAN_MOTION_DOT": 4.661e-05, "MEAN_MOTION_DDOT": 0}, "tle": {"line1": "1 36459U 93036BBJ 25342.34326055  .00004661  00000+0  18204-2 0  9995", "line2": "2 36459  74.0480   7.7381 0113541 104.7075 256.6690 14.26367403 78192"}}, "geometry": {"type": "Point", "coordinates": [-44.093087820309925, -67.244544630225]}}, {"type": "Feature", "properties": {"norad_id": 36470, "name": "COSMOS 2251 DEB", "group": "cosmos-2251-debris", "lat": 61.05094650846106, "lon": 41.76564057407127, "alt_km": 524.0107997640225, "timestamp": "2025-12-13T05:42:57.969601+00:00", "meta": {"OBJECT_NAME": "COSMOS 2251 DEB", "OBJECT_ID": "1993-036BBV", "EPOCH": "2025-12-11T11:47:48.523776", "MEAN_MOTION": 15.07125789, "ECCENTRICITY": 0.00234164, "INCLINATION": 73.8446, "RA_OF_ASC_NODE": 257.0012, "ARG_OF_PERICENTER": 85.44, "MEAN_ANOMALY": 274.9463, "EPHEMERIS_TYPE": 0, "CLASSIFICATION_TYPE": "U", "NORAD_CAT_ID": 36470, "ELEMENT_SET_NO": 999, "REV_AT_EPOCH": 66075, "BSTAR": 0.0067772388, "MEAN_MOTION_DOT": 0.00103936, "MEAN_MOTION_DDOT": 0}, "tle": {"line1": "1 36470U 93036BBV 25345.49153384  .00103936  00000+0  67772-2 0  9999", "line2": "2 36470  73.8446 257.0012 0023416  85.4400 274.9463 15.07125789660752"}}, "geometry": {"type": "Point", "coordinates": [41.76564057407127, 61.05094650846106]}}, {"type": "Feature", "properties": {"norad_id": 36528, "name": "COSMOS 2251 DEB", "group": "cosmos-2251-debris", "lat": 44.81331148466249, "lon": 160.85823170523932, "alt_km": 836.0254911451966, "timestamp": "2025-12-13T05:42:57.969611+00:00", "meta": {"OBJECT_NAME": "COSMOS 2251 DEB", "OBJECT_ID": "1993-036BCN", "EPOCH": "2025-12-07T18:35:16.209888", "MEAN_MOTION": 14.3059773, "ECCENTRICITY": 0.00852102, "INCLINATION": 74.0157, "RA_OF_ASC_NODE": 154.2656, "ARG_OF_PERICENTER": 204.8135, "MEAN_ANOMALY": 154.8907, "EPHEMERIS_TYPE": 0, "CLASSIFICATION_TYPE": "U", "NORAD_CAT_ID": 36528, "ELEMENT_SET_NO": 999, "REV_AT_EPOCH": 64356, "BSTAR": 0.0018462235, "MEAN_MOTION_DOT": 4.991e-05, "MEAN_MOTION_DDOT": 0}, "tle": {"line1": "1 36528U 93036BCN 25341.77449317  .00004991  00000+0  18462-2 0  9997", "line2": "2 36528  74.0157 154.2656 0085210 204.8135 154.8907 14.30597730643565"}}, "geometry": {"type": "Point", "coordinates": [160.85823170523932, 44.81331148466249]}}, {"type": "Feature", "properties": {"norad_id": 36533, "name": "COSMOS 2251 DEB", "group": "cosmos-2251-debris", "lat": -56.20883955637749, "lon": -40.74064607187587, "alt_km": 700.7536909385599, "timestamp": "2025-12-13T05:42:57.969621+00:00", "meta": {"OBJECT_NAME": "COSMOS 2251 DEB", "OBJECT_ID": "1993-036BCT", "EPOCH": "2025-12-11T02:55:41.664000", "MEAN_MOTION": 14.498054, "ECCENTRICITY": 0.00492095, "INCLINATION": 74.0114, "RA_OF_ASC_NODE": 117.868, "ARG_OF_PERICENTER": 267.3068, "MEAN_ANOMALY": 92.2459, "EPHEMERIS_TYPE": 0, "CLASSIFICATION_TYPE": "U", "NORAD_CAT_ID": 36533, "ELEMENT_SET_NO": 999, "REV_AT_EPOCH": 84461, "BSTAR": 0.00077586948, "MEAN_MOTION_DOT": 3.011e-05, "MEAN_MOTION_DDOT": 0}, "tle": {"line1": "1 36533U 93036BCT 25345.12201000  .00003011  00000+0  77587-3 0  9997", "line2": "2 36533  74.0114 117.8680 0049209 267.3068  92.2459 14.49805400844615"}}, "geometry": {"type": "Point", "coordinates": [-40.74064607187587, -56.20883955637749]}}]}